CCSDS_OMM_VERS = 2.0
CREATION_DATE  = 
ORIGINATOR     = 

OBJECT_NAME    = SL-16 R/B
OBJECT_ID      = 1998-043G
CENTER_NAME    = EARTH
REF_FRAME      = TEME
TIME_SYSTEM    = UTC
MEAN_ELEMENT_THEORY = SGP/SGP4

EPOCH          = 2026-02-12T11:20:44.155392
MEAN_MOTION    = 14.26043774
ECCENTRICITY   = .0010963
INCLINATION    = 98.8209
RA_OF_ASC_NODE = 356.6642
ARG_OF_PERICENTER = 87.8035
MEAN_ANOMALY   = 272.4400

EPHEMERIS_TYPE = 0
CLASSIFICATION_TYPE = U
NORAD_CAT_ID   = 25400
ELEMENT_SET_NO = 999
REV_AT_EPOCH   = 43539
BSTAR          = .52401E-4
MEAN_MOTION_DOT = .8E-6
MEAN_MOTION_DDOT = 0

CCSDS_OMM_VERS = 2.0
CREATION_DATE  = 
ORIGINATOR     = 

OBJECT_NAME    = SL-16 R/B
OBJECT_ID      = 1998-045B
CENTER_NAME    = EARTH
REF_FRAME      = TEME
TIME_SYSTEM    = UTC
MEAN_ELEMENT_THEORY = SGP/SGP4

EPOCH          = 2026-02-12T00:05:45.271680
MEAN_MOTION    = 14.16186137
ECCENTRICITY   = .00055225
INCLINATION    = 71.0085
RA_OF_ASC_NODE = 235.5895
ARG_OF_PERICENTER = 55.6053
MEAN_ANOMALY   = 304.5592

EPHEMERIS_TYPE = 0
CLASSIFICATION_TYPE = U
NORAD_CAT_ID   = 25407
ELEMENT_SET_NO = 999
REV_AT_EPOCH   = 42346
BSTAR          = .13564662E-3
MEAN_MOTION_DOT = .221E-5
MEAN_MOTION_DDOT = 0

CCSDS_OMM_VERS = 2.0
CREATION_DATE  = 
ORIGINATOR     = 

OBJECT_NAME    = ISS (ZARYA)
OBJECT_ID      = 1998-067A
CENTER_NAME    = EARTH
REF_FRAME      = TEME
TIME_SYSTEM    = UTC
MEAN_ELEMENT_THEORY = SGP/SGP4

EPOCH          = 2026-02-12T09:46:50.901312
MEAN_MOTION    = 15.48564056
ECCENTRICITY   = .00111
INCLINATION    = 51.6314
RA_OF_ASC_NODE = 197.3334
ARG_OF_PERICENTER = 91.0041
MEAN_ANOMALY   = 269.2219

EPHEMERIS_TYPE = 0
CLASSIFICATION_TYPE = U
NORAD_CAT_ID   = 25544
ELEMENT_SET_NO = 999
REV_AT_EPOCH   = 55241
BSTAR          = .18329E-3
MEAN_MOTION_DOT = .9524E-4
MEAN_MOTION_DDOT = 0

CCSDS_OMM_VERS = 2.0
CREATION_DATE  = 
ORIGINATOR     = 

OBJECT_NAME    = CZ-4B R/B
OBJECT_ID      = 1999-025C
CENTER_NAME    = EARTH
REF_FRAME      = TEME
TIME_SYSTEM    = UTC
MEAN_ELEMENT_THEORY = SGP/SGP4

EPOCH          = 2026-02-12T02:49:37.754112
MEAN_MOTION    = 14.18260165
ECCENTRICITY   = .00379792
INCLINATION    = 98.6679
RA_OF_ASC_NODE = 87.9987
ARG_OF_PERICENTER = 59.5435
MEAN_ANOMALY   = 315.2826

EPHEMERIS_TYPE = 0
CLASSIFICATION_TYPE = U
NORAD_CAT_ID   = 25732
ELEMENT_SET_NO = 999
REV_AT_EPOCH   = 38454
BSTAR          = .44853468E-4
MEAN_MOTION_DOT = .5E-6
MEAN_MOTION_DDOT = 0

CCSDS_OMM_VERS = 2.0
CREATION_DATE  = 
ORIGINATOR     = 

OBJECT_NAME    = OKEAN-O
OBJECT_ID      = 1999-039A
CENTER_NAME    = EARTH
REF_FRAME      = TEME
TIME_SYSTEM    = UTC
MEAN_ELEMENT_THEORY = SGP/SGP4

EPOCH          = 2026-02-12T04:03:12.100320
MEAN_MOTION    = 14.80293283
ECCENTRICITY   = .00018395
INCLINATION    = 97.9501
RA_OF_ASC_NODE = 103.3126
ARG_OF_PERICENTER = 84.0156
MEAN_ANOMALY   = 276.1266

EPHEMERIS_TYPE = 0
CLASSIFICATION_TYPE = U
NORAD_CAT_ID   = 25860
ELEMENT_SET_NO = 999
REV_AT_EPOCH   = 43061
BSTAR          = .10509816E-3
MEAN_MOTION_DOT = .748E-5
MEAN_MOTION_DDOT = 0

CCSDS_OMM_VERS = 2.0
CREATION_DATE  = 
ORIGINATOR     = 

OBJECT_NAME    = SL-16 R/B
OBJECT_ID      = 1999-039B
CENTER_NAME    = EARTH
REF_FRAME      = TEME
TIME_SYSTEM    = UTC
MEAN_ELEMENT_THEORY = SGP/SGP4

EPOCH          = 2026-02-12T04:08:56.020704
MEAN_MOTION    = 14.81695209
ECCENTRICITY   = .00143642
INCLINATION    = 98.0023
RA_OF_ASC_NODE = 102.3000
ARG_OF_PERICENTER = 345.5928
MEAN_ANOMALY   = 14.4873

EPHEMERIS_TYPE = 0
CLASSIFICATION_TYPE = U
NORAD_CAT_ID   = 25861
ELEMENT_SET_NO = 999
REV_AT_EPOCH   = 43308
BSTAR          = .88402219E-4
MEAN_MOTION_DOT = .643E-5
MEAN_MOTION_DDOT = 0

CCSDS_OMM_VERS = 2.0
CREATION_DATE  = 
ORIGINATOR     = 

OBJECT_NAME    = DELTA 2 R/B
OBJECT_ID      = 1999-041E
CENTER_NAME    = EARTH
REF_FRAME      = TEME
TIME_SYSTEM    = UTC
MEAN_ELEMENT_THEORY = SGP/SGP4

EPOCH          = 2026-02-12T09:08:24.537120
MEAN_MOTION    = 14.11738281
ECCENTRICITY   = .0502255
INCLINATION    = 51.7655
RA_OF_ASC_NODE = 42.3496
ARG_OF_PERICENTER = 273.6704
MEAN_ANOMALY   = 80.6949

EPHEMERIS_TYPE = 0
CLASSIFICATION_TYPE = U
NORAD_CAT_ID   = 25876
ELEMENT_SET_NO = 999
REV_AT_EPOCH   = 35945
BSTAR          = .41338E-3
MEAN_MOTION_DOT = .2337E-4
MEAN_MOTION_DDOT = 0

CCSDS_OMM_VERS = 2.0
CREATION_DATE  = 
ORIGINATOR     = 

OBJECT_NAME    = HELIOS 1B
OBJECT_ID      = 1999-064A
CENTER_NAME    = EARTH
REF_FRAME      = TEME
TIME_SYSTEM    = UTC
MEAN_ELEMENT_THEORY = SGP/SGP4

EPOCH          = 2026-02-12T05:19:20.424288
MEAN_MOTION    = 14.87592259
ECCENTRICITY   = .0002171
INCLINATION    = 98.1723
RA_OF_ASC_NODE = 304.7134
ARG_OF_PERICENTER = 111.3012
MEAN_ANOMALY   = 248.8435

EPHEMERIS_TYPE = 0
CLASSIFICATION_TYPE = U
NORAD_CAT_ID   = 25977
ELEMENT_SET_NO = 999
REV_AT_EPOCH   = 68147
BSTAR          = .22107E-3
MEAN_MOTION_DOT = .195E-4
MEAN_MOTION_DDOT = 0

CCSDS_OMM_VERS = 2.0
CREATION_DATE  = 
ORIGINATOR     = 

OBJECT_NAME    = TERRA
OBJECT_ID      = 1999-068A
CENTER_NAME    = EARTH
REF_FRAME      = TEME
TIME_SYSTEM    = UTC
MEAN_ELEMENT_THEORY = SGP/SGP4

EPOCH          = 2026-02-12T10:37:13.257120
MEAN_MOTION    = 14.60987089
ECCENTRICITY   = .0001001
INCLINATION    = 97.9649
RA_OF_ASC_NODE = 97.8347
ARG_OF_PERICENTER = 244.4334
MEAN_ANOMALY   = 171.6869

EPHEMERIS_TYPE = 0
CLASSIFICATION_TYPE = U
NORAD_CAT_ID   = 25994
ELEMENT_SET_NO = 999
REV_AT_EPOCH   = 39139
BSTAR          = .11321E-3
MEAN_MOTION_DOT = .511E-5
MEAN_MOTION_DDOT = 0

CCSDS_OMM_VERS = 2.0
CREATION_DATE  = 
ORIGINATOR     = 

OBJECT_NAME    = SL-16 R/B
OBJECT_ID      = 2000-006B
CENTER_NAME    = EARTH
REF_FRAME      = TEME
TIME_SYSTEM    = UTC
MEAN_ELEMENT_THEORY = SGP/SGP4

EPOCH          = 2026-02-12T12:10:27.723648
MEAN_MOTION    = 14.15819848
ECCENTRICITY   = .0018229
INCLINATION    = 71.0030
RA_OF_ASC_NODE = 150.7865
ARG_OF_PERICENTER = 225.8728
MEAN_ANOMALY   = 134.0896

EPHEMERIS_TYPE = 0
CLASSIFICATION_TYPE = U
NORAD_CAT_ID   = 26070
ELEMENT_SET_NO = 999
REV_AT_EPOCH   = 34499
BSTAR          = -.87622E-4
MEAN_MOTION_DOT = -.22E-5
MEAN_MOTION_DDOT = 0

CCSDS_OMM_VERS = 2.0
CREATION_DATE  = 
ORIGINATOR     = 

OBJECT_NAME    = TITAN 4B R/B
OBJECT_ID      = 2000-047B
CENTER_NAME    = EARTH
REF_FRAME      = TEME
TIME_SYSTEM    = UTC
MEAN_ELEMENT_THEORY = SGP/SGP4

EPOCH          = 2026-02-12T10:48:18.078336
MEAN_MOTION    = 15.09347670
ECCENTRICITY   = .0037032
INCLINATION    = 67.9893
RA_OF_ASC_NODE = 111.4722
ARG_OF_PERICENTER = 66.3909
MEAN_ANOMALY   = 294.1122

EPHEMERIS_TYPE = 0
CLASSIFICATION_TYPE = U
NORAD_CAT_ID   = 26474
ELEMENT_SET_NO = 999
REV_AT_EPOCH   = 38910
BSTAR          = .22784E-3
MEAN_MOTION_DOT = .3568E-4
MEAN_MOTION_DDOT = 0

CCSDS_OMM_VERS = 2.0
CREATION_DATE  = 
ORIGINATOR     = 

OBJECT_NAME    = ENVISAT
OBJECT_ID      = 2002-009A
CENTER_NAME    = EARTH
REF_FRAME      = TEME
TIME_SYSTEM    = UTC
MEAN_ELEMENT_THEORY = SGP/SGP4

EPOCH          = 2026-02-12T10:49:37.162848
MEAN_MOTION    = 14.39027455
ECCENTRICITY   = .0001339
INCLINATION    = 98.3684
RA_OF_ASC_NODE = 357.6564
ARG_OF_PERICENTER = 88.1701
MEAN_ANOMALY   = 22.0835

EPHEMERIS_TYPE = 0
CLASSIFICATION_TYPE = U
NORAD_CAT_ID   = 27386
ELEMENT_SET_NO = 999
REV_AT_EPOCH   = 25554
BSTAR          = .6357E-4
MEAN_MOTION_DOT = .154E-5
MEAN_MOTION_DDOT = 0

