SL-16 R/B               
1 25400U 98043G   26043.47273328  .00000080  00000+0  52401-4 0  9999
2 25400  98.8209 356.6642 0010963  87.8035 272.4400 14.26043774435392
SL-16 R/B               
1 25407U 98045B   26043.00399620  .00000221  00000+0  13565-3 0  9995
2 25407  71.0085 235.5895 0005522  55.6053 304.5592 14.16186137423461
ISS (ZARYA)             
1 25544U 98067A   26043.40753358  .00009524  00000+0  18329-3 0  9995
2 25544  51.6314 197.3334 0011100  91.0041 269.2219 15.48564056552412
CZ-4B R/B               
1 25732U 99025C   26043.11779808  .00000050  00000+0  44853-4 0  9992
2 25732  98.6679  87.9987 0037979  59.5435 315.2826 14.18260165384545
OKEAN-O                 
1 25860U 99039A   26043.16889005  .00000748  00000+0  10510-3 0  9991
2 25860  97.9501 103.3126 0001839  84.0156 276.1266 14.80293283430619
SL-16 R/B               
1 25861U 99039B   26043.17287061  .00000643  00000+0  88402-4 0  9997
2 25861  98.0023 102.3000 0014364 345.5928  14.4873 14.81695209433086
DELTA 2 R/B             
1 25876U 99041E   26043.38083955  .00002337  00000+0  41338-3 0  9993
2 25876  51.7655  42.3496 0502255 273.6704  80.6949 14.11738281359453
HELIOS 1B               
1 25977U 99064A   26043.22176417  .00001950  00000+0  22107-3 0  9992
2 25977  98.1723 304.7134 0002171 111.3012 248.8435 14.87592259681476
TERRA                   
1 25994U 99068A   26043.44251455  .00000511  00000+0  11321-3 0  9993
2 25994  97.9649  97.8347 0001001 244.4334 171.6869 14.60987089391394
SL-16 R/B               
1 26070U 00006B   26043.50726532 -.00000220  00000+0 -87622-4 0  9990
2 26070  71.0030 150.7865 0018229 225.8728 134.0896 14.15819848344995
TITAN 4B R/B            
1 26474U 00047B   26043.45020924  .00003568  00000+0  22784-3 0  9992
2 26474  67.9893 111.4722 0037032  66.3909 294.1122 15.09347670389107
ENVISAT                 
1 27386U 02009A   26043.45112457  .00000154  00000+0  63570-4 0  9995
2 27386  98.3684 357.6564 0001339  88.1701  22.0835 14.39027455255544
